QIANFAN-41              
1 62242U 24232F   25327.35713971  .00000189  00000+0  27495-3 0  9991
2 62242  89.0041  43.1499 0012560 241.7454 118.2430 13.50978329 96631
QIANFAN-42              
1 62243U 24232G   25327.38481490  .00000612  00000+0  25766-3 0  9993
2 62243  89.0032  39.5652 0016675 142.3014 217.9351 14.24461285 98610
QIANFAN-43              
1 62244U 24232H   25327.35296024  .00000183  00000+0  26471-3 0  9995
2 62244  89.0046  43.2147 0013949 248.1712 111.7955 13.50978905 65242
QIANFAN-44              
1 62245U 24232J   25327.41475370  .00000169  00000+0  24282-3 0  9998
2 62245  89.0044  43.0197 0012229 244.0190 115.9702 13.50973590 96727
QIANFAN-45              
1 62246U 24232K   25327.38180080  .00000169  00000+0  24302-3 0  9999
2 62246  89.0048  43.1687 0012895 243.9972 115.9852 13.50977428 96643
QIANFAN-46              
1 62247U 24232L   25327.48058738  .00000179  00000+0  25888-3 0  9996
2 62247  89.0044  43.2286 0012837 249.9205 110.0565 13.50975633 96617
QIANFAN-47              
1 62248U 24232M   25327.41062670  .00000167  00000+0  24089-3 0  9999
2 62248  89.0040  43.1694 0013277 249.3364 110.6363 13.50978145 96630
QIANFAN-48              
1 62249U 24232N   25327.37358213  .00000168  00000+0  24181-3 0  9990
2 62249  89.0044  43.1742 0015476 252.9428 107.0028 13.50973286 96632
